$$SOE
2459580.500000000, A.D. 2022-Jan-01 00:00:00.0000, 1.035458099074651E+08, -5.124426088020413E+08, 2.267879507853976E+07,
2459587.500000000, A.D. 2022-Jan-08 00:00:00.0000, 1.090992897516397E+08, -5.077132047796880E+08, 2.268947316024116E+07,
2459594.500000000, A.D. 2022-Jan-15 00:00:00.0000, 1.146150847407210E+08, -5.028082520519214E+08, 2.269230265668529E+07,
2459601.500000000, A.D. 2022-Jan-22 00:00:00.0000, 1.200904588156535E+08, -4.977257920292739E+08, 2.268711718655184E+07,
2459608.500000000, A.D. 2022-Jan-29 00:00:00.0000, 1.255225605819262E+08, -4.924637905343547E+08, 2.267374382153818E+07,
2459615.500000000, A.D. 2022-Feb-05 00:00:00.0000, 1.309084126950348E+08, -4.870201359231923E+08, 2.265200285470745E+07,
2459622.500000000, A.D. 2022-Feb-12 00:00:00.0000, 1.362449027278596E+08, -4.813926381846777E+08, 2.262170725695595E+07,
2459629.500000000, A.D. 2022-Feb-19 00:00:00.0000, 1.415287741247368E+08, -4.755790266531171E+08, 2.258266213440114E+07,
2459636.500000000, A.D. 2022-Feb-26 00:00:00.0000, 1.467566158517122E+08, -4.695769470626306E+08, 2.253466424530044E+07,
2459643.500000000, A.D. 2022-Mar-05 00:00:00.0000, 1.519248508135491E+08, -4.633839585679887E+08, 2.247750150855097E+07,
2459650.500000000, A.D. 2022-Mar-12 00:00:00.0000, 1.570297231598425E+08, -4.569975308079787E+08, 2.241095247481489E+07,
2459657.500000000, A.D. 2022-Mar-19 00:00:00.0000, 1.620672844395620E+08, -4.504150409969112E+08, 2.233478575247380E+07,
2459664.500000000, A.D. 2022-Mar-26 00:00:00.0000, 1.670333785008788E+08, -4.436337710678898E+08, 2.224875938194752E+07,
2459671.500000000, A.D. 2022-Apr-02 00:00:00.0000, 1.719236250630744E+08, -4.366509049467198E+08, 2.215262014336139E+07,
2459678.500000000, A.D. 2022-Apr-09 00:00:00.0000, 1.767334020738311E+08, -4.294635259819489E+08, 2.204610276858151E+07,
2459685.500000000, A.D. 2022-Apr-16 00:00:00.0000, 1.814578270292746E+08, -4.220686139164904E+08, 2.192892907372421E+07,
2459692.500000000, A.D. 2022-Apr-23 00:00:00.0000, 1.860917357831961E+08, -4.144630403664985E+08, 2.180080721221563E+07,
2459699.500000000, A.D. 2022-Apr-30 00:00:00.0000, 1.906296567418487E+08, -4.066435651137206E+08, 2.166143103086703E+07,
2459706.500000000, A.D. 2022-May-07 00:00:00.0000, 1.950657832418993E+08, -3.986068352593344E+08, 2.151047908039767E+07,
2459713.500000000, A.D. 2022-May-14 00:00:00.0000, 1.993939452002117E+08, -3.903493842943089E+08, 2.134761339436755E+07,
2459720.500000000, A.D. 2022-May-21 00:00:00.0000, 2.036075776623564E+08, -3.818676304442057E+08, 2.117247827741432E+07,
2459727.500000000, A.D. 2022-May-28 00:00:00.0000, 2.076996853818775E+08, -3.731578753929557E+08, 2.098469906041512E+07,
2459734.500000000, A.D. 2022-Jun-04 00:00:00.0000, 2.116628032636847E+08, -3.642163038820426E+08, 2.078388076338154E+07,
2459741.500000000, A.D. 2022-Jun-11 00:00:00.0000, 2.154889523077320E+08, -3.550389844140080E+08, 2.056960664467393E+07,
2459748.500000000, A.D. 2022-Jun-18 00:00:00.0000, 2.191695905066897E+08, -3.456218713356314E+08, 2.034143662547143E+07,
2459755.500000000, A.D. 2022-Jun-25 00:00:00.0000, 2.226955580536372E+08, -3.359608086924175E+08, 2.009890557501499E+07,
2459762.500000000, A.D. 2022-Jul-02 00:00:00.0000, 2.260570162197847E+08, -3.260515363657665E+08, 1.984152142959204E+07,
2459769.500000000, A.D. 2022-Jul-09 00:00:00.0000, 2.292433794034084E+08, -3.158896988732809E+08, 1.956876311500600E+07,
2459776.500000000, A.D. 2022-Jul-16 00:00:00.0000, 2.322432392716590E+08, -3.054708564496850E+08, 1.928007835830462E+07,
2459783.500000000, A.D. 2022-Jul-23 00:00:00.0000, 2.350442776165541E+08, -2.947904992097462E+08, 1.897488159036863E+07,
2459790.500000000, A.D. 2022-Jul-30 00:00:00.0000, 2.376331666481444E+08, -2.838440688491374E+08, 1.865255165295634E+07,
2459797.500000000, A.D. 2022-Aug-06 00:00:00.0000, 2.399954587589238E+08, -2.726269886216198E+08, 1.831242903203286E+07,
2459804.500000000, A.D. 2022-Aug-13 00:00:00.0000, 2.421154631413757E+08, -2.611347005908785E+08, 1.795381292309289E+07,
2459811.500000000, A.D. 2022-Aug-20 00:00:00.0000, 2.439761056347351E+08, -2.493627128798696E+08, 1.757595824507253E+07,
2459818.500000000, A.D. 2022-Aug-27 00:00:00.0000, 2.455587695294429E+08, -2.373066604609412E+08, 1.717807256360337E+07,
2459825.500000000, A.D. 2022-Sep-03 00:00:00.0000, 2.468431149328108E+08, -2.249623831839584E+08, 1.675931293680575E+07,
2459832.500000000, A.D. 2022-Sep-10 00:00:00.0000, 2.478068738267955E+08, -2.123260256003578E+08, 1.631878274919626E+07,
2459839.500000000, A.D. 2022-Sep-17 00:00:00.0000, 2.484256175823474E+08, -1.993941644529843E+08, 1.585552864080000E+07,
2459846.500000000, A.D. 2022-Sep-24 00:00:00.0000, 2.486724934652742E+08, -1.861639714120328E+08, 1.536853768477787E+07,
2459853.500000000, A.D. 2022-Oct-01 00:00:00.0000, 2.485179266997817E+08, -1.726334207540994E+08, 1.485673502732068E+07,
2459860.500000000, A.D. 2022-Oct-08 00:00:00.0000, 2.479292848995813E+08, -1.588015539146737E+08, 1.431898233975758E+07,
2459867.500000000, A.D. 2022-Oct-15 00:00:00.0000, 2.468705008032326E+08, -1.446688157657643E+08, 1.375407776284732E+07,
2459874.500000000, A.D. 2022-Oct-22 00:00:00.0000, 2.453016491125407E+08, -1.302374849805322E+08, 1.316075811234554E+07,
2459881.500000000, A.D. 2022-Oct-29 00:00:00.0000, 2.431784801016368E+08, -1.155122276546368E+08, 1.253770390438834E+07,
2459888.500000000, A.D. 2022-Nov-05 00:00:00.0000, 2.404519162064915E+08, -1.005008054713246E+08, 1.188354864405938E+07,
2459895.500000000, A.D. 2022-Nov-12 00:00:00.0000, 2.370675204364352E+08, -8.521498041056371E+07, 1.119689464588476E+07,
2459902.500000000, A.D. 2022-Nov-19 00:00:00.0000, 2.329649576697026E+08, -6.967167130690634E+07, 1.047633814497350E+07,
2459909.500000000, A.D. 2022-Nov-26 00:00:00.0000, 2.280774884064259E+08, -5.389442959077654E+07, 9.720507476120191E+06,
2459916.500000000, A.D. 2022-Dec-03 00:00:00.0000, 2.223315618108099E+08, -3.791531404617950E+07, 8.928119544710893E+06,
2459923.500000000, A.D. 2022-Dec-10 00:00:00.0000, 2.156466164121032E+08, -2.177725464418254E+07, 8.098061617870288E+06,
2459930.500000000, A.D. 2022-Dec-17 00:00:00.0000, 2.079352584241591E+08, -5.536997090879697E+06, 7.229507601598147E+06,
2459937.500000000, A.D. 2022-Dec-24 00:00:00.0000, 1.991040752877817E+08, 1.073129898376828E+07, 6.322080214321667E+06,
2459944.500000000, A.D. 2022-Dec-31 00:00:00.0000, 1.890554594327789E+08, 2.693179478401934E+07, 5.376072187385814E+06,
2459951.500000000, A.D. 2023-Jan-07 00:00:00.0000, 1.776909585555529E+08, 4.294216006440111E+07, 4.392739522318488E+06,
2459958.500000000, A.D. 2023-Jan-14 00:00:00.0000, 1.649168056266232E+08, 5.860858506520654E+07, 3.374675277823001E+06,
2459965.500000000, A.D. 2023-Jan-21 00:00:00.0000, 1.506523485999124E+08, 7.374140522683606E+07, 2.326258388891160E+06,
2459972.500000000, A.D. 2023-Jan-28 00:00:00.0000, 1.348419537089352E+08, 8.811274179020333E+07, 1.254143870055269E+06,
2459979.500000000, A.D. 2023-Feb-04 00:00:00.0000, 1.174703642636336E+08, 1.014582821475455E+08, 1.677146576879770E+05,
2459986.500000000, A.D. 2023-Feb-11 00:00:00.0000, 9.858023490523863E+07, 1.134858330177536E+08, -9.206465071781650E+05,
2459993.500000000, A.D. 2023-Feb-18 00:00:00.0000, 7.828861188725556E+07, 1.238929642540736E+08, -1.995661071543396E+06,
2460000.500000000, A.D. 2023-Feb-25 00:00:00.0000, 5.679707642781834E+07, 1.323941577751274E+08, -3.039828521498725E+06,
2460007.500000000, A.D. 2023-Mar-04 00:00:00.0000, 3.438954046546824E+07, 1.387541555614235E+08, -4.034749359687544E+06,
2460014.500000000, A.D. 2023-Mar-11 00:00:00.0000, 1.141395249159699E+07, 1.428199266116143E+08, -4.962939899194993E+06,
2460021.500000000, A.D. 2023-Mar-18 00:00:00.0000, -1.175034378627439E+07, 1.445416668532328E+08, -5.809721216766708E+06,
2460028.500000000, A.D. 2023-Mar-25 00:00:00.0000, -3.473172357378168E+07, 1.439759150985338E+08, -6.564657372830033E+06,
2460035.500000000, A.D. 2023-Apr-01 00:00:00.0000, -5.720123833251971E+07, 1.412704549195802E+08, -7.222171411731467E+06,
2460042.500000000, A.D. 2023-Apr-08 00:00:00.0000, -7.889529464514180E+07, 1.366371859419670E+08, -7.781295907623030E+06,
2460049.500000000, A.D. 2023-Apr-15 00:00:00.0000, -9.962364272621594E+07, 1.303218128204130E+08, -8.244807489593297E+06,
2460056.500000000, A.D. 2023-Apr-22 00:00:00.0000, -1.192653642535714E+08, 1.225775436017089E+08, -8.618105940418333E+06,
2460063.500000000, A.D. 2023-Apr-29 00:00:00.0000, -1.377578139118324E+08, 1.136463039132540E+08, -8.908136761671342E+06,
2460070.500000000, A.D. 2023-May-06 00:00:00.0000, -1.550831301949389E+08, 1.037477018790580E+08, -9.122521906999316E+06,
2460077.500000000, A.D. 2023-May-13 00:00:00.0000, -1.712553770257120E+08, 9.307418595110385E+07, -9.268943945178796E+06,
2460084.500000000, A.D. 2023-May-20 00:00:00.0000, -1.863097946467114E+08, 8.179036991960190E+07, -9.354757731645994E+06,
2460091.500000000, A.D. 2023-May-27 00:00:00.0000, -2.002945394451856E+08, 7.003476326460715E+07, -9.386776325363159E+06,
2460098.500000000, A.D. 2023-Jun-03 00:00:00.0000, -2.132647079738684E+08, 5.792264451707692E+07, -9.371176896174779E+06,
2460105.500000000, A.D. 2023-Jun-10 00:00:00.0000, -2.252782166543233E+08, 4.554928554345038E+07, -9.313482479356645E+06,
2460112.500000000, A.D. 2023-Jun-17 00:00:00.0000, -2.363930833063766E+08, 3.299308527434645E+07, -9.218587734590944E+06,
2460119.500000000, A.D. 2023-Jun-24 00:00:00.0000, -2.466657173418852E+08, 2.031840055992430E+07, -9.090807486549992E+06,
2460126.500000000, A.D. 2023-Jul-01 00:00:00.0000, -2.561499103112338E+08, 7.577998358132155E+06, -8.933934670180742E+06,
2460133.500000000, A.D. 2023-Jul-08 00:00:00.0000, -2.648963004892383E+08, -5.184873209931622E+06, -8.751299590479415E+06,
2460140.500000000, A.D. 2023-Jul-15 00:00:00.0000, -2.729521502952253E+08, -1.793476591706305E+07, -8.545826332954742E+06,
2460147.500000000, A.D. 2023-Jul-22 00:00:00.0000, -2.803613203351662E+08, -3.064262029777825E+07, -8.320084692579295E+06,
$$EOE